ENTRYSAT                
1 44429U 98067QP  20015.58441598  .00007341  00000-0  11482-3 0  9999
2 44429  51.6413  24.3201 0003305 104.6193 255.5164 15.54898259 30559
VCC C                   
1 44430U 98067QQ  20015.44242339  .00009812  00000-0  14880-3 0  9998
2 44430  51.6414  24.8765 0003335 112.4098 247.7247 15.55306680 29350
VCC B                   
1 44431U 98067QR  20016.06165742  .00006083  00000-0  97864-4 0  9991
2 44431  51.6420  22.2608 0003598 115.0533 245.0832 15.54469672 30566
DUCHIFAT-3              
1 44854U 19089C   20015.09082508  .00000365  00000-0  35977-4 0  9991
2 44854  36.9694 290.5214 0009283 258.3742 101.5960 14.98950331  5123
